{
  "type": "FeatureCollection",
  "features": [
    {
      "type": "Feature",
      "properties": {
        "norad_id": 55973,
        "name": "TIANMU-1 03",
        "group": "weather",
        "lat": 19.8425185623963,
        "lon": -24.36241172231339,
        "alt_km": 444.2630688600593,
        "timestamp": "2025-12-16T03:53:26.701383+00:00",
        "meta_object_name": "TIANMU-1 03",
        "meta_object_id": "2023-039A",
        "meta_epoch": "2025-12-15T08:29:54.595968",
        "meta_mean_motion": 15.41006139,
        "meta_eccentricity": 0.00043155,
        "meta_inclination": 97.5103,
        "meta_ra_of_asc_node": 152.0784,
        "meta_arg_of_pericenter": 53.4661,
        "meta_mean_anomaly": 306.6982,
        "meta_ephemeris_type": 0,
        "meta_classification_type": "U",
        "meta_norad_cat_id": 55973,
        "meta_element_set_no": 999,
        "meta_rev_at_epoch": 15246,
        "meta_bstar": 0.00027962582,
        "meta_mean_motion_dot": 0.00011451,
        "meta_mean_motion_ddot": 0,
        "tle_line1": "1 55973U 23039A   25349.35410412  .00011451  00000+0  27963-3 0  9990",
        "tle_line2": "2 55973  97.5103 152.0784 0004315  53.4661 306.6982 15.41006139152463"
      },
      "geometry": {
        "type": "Point",
        "coordinates": [
          -24.36241172231339,
          19.8425185623963
        ]
      }
    },
    {
      "type": "Feature",
      "properties": {
        "norad_id": 55974,
        "name": "TIANMU-1 04",
        "group": "weather",
        "lat": -79.13243413802152,
        "lon": -164.54354798096534,
        "alt_km": 451.51158615160784,
        "timestamp": "2025-12-16T03:53:26.701396+00:00",
        "meta_object_name": "TIANMU-1 04",
        "meta_object_id": "2023-039B",
        "meta_epoch": "2025-12-15T09:32:58.611840",
        "meta_mean_motion": 15.41345895,
        "meta_eccentricity": 0.00049694,
        "meta_inclination": 97.5034,
        "meta_ra_of_asc_node": 151.3134,
        "meta_arg_of_pericenter": 48.3105,
        "meta_mean_anomaly": 311.8566,
        "meta_ephemeris_type": 0,
        "meta_classification_type": "U",
        "meta_norad_cat_id": 55974,
        "meta_element_set_no": 999,
        "meta_rev_at_epoch": 15247,
        "meta_bstar": 0.00027849704,
        "meta_mean_motion_dot": 0.00011535,
        "meta_mean_motion_ddot": 0,
        "tle_line1": "1 55974U 23039B   25349.39790060  .00011535  00000+0  27850-3 0  9993",
        "tle_line2": "2 55974  97.5034 151.3134 0004969  48.3105 311.8566 15.41345895152471"
      },
      "geometry": {
        "type": "Point",
        "coordinates": [
          -164.54354798096534,
          -79.13243413802152
        ]
      }
    },
    {
      "type": "Feature",
      "properties": {
        "norad_id": 55975,
        "name": "TIANMU-1 05",
        "group": "weather",
        "lat": -54.262255021693576,
        "lon": 163.15238251217488,
        "alt_km": 451.86183525642537,
        "timestamp": "2025-12-16T03:53:26.701476+00:00",
        "meta_object_name": "TIANMU-1 05",
        "meta_object_id": "2023-039C",
        "meta_epoch": "2025-12-15T09:25:38.169696",
        "meta_mean_motion": 15.40964831,
        "meta_eccentricity": 0.00042933,
        "meta_inclination": 97.5081,
        "meta_ra_of_asc_node": 151.8006,
        "meta_arg_of_pericenter": 70.6843,
        "meta_mean_anomaly": 289.4867,
        "meta_ephemeris_type": 0,
        "meta_classification_type": "U",
        "meta_norad_cat_id": 55975,
        "meta_element_set_no": 999,
        "meta_rev_at_epoch": 15245,
        "meta_bstar": 0.00027772611,
        "meta_mean_motion_dot": 0.00011357,
        "meta_mean_motion_ddot": 0,
        "tle_line1": "1 55975U 23039C   25349.39280289  .00011357  00000+0  27773-3 0  9997",
        "tle_line2": "2 55975  97.5081 151.8006 0004293  70.6843 289.4867 15.40964831152452"
      },
      "geometry": {
        "type": "Point",
        "coordinates": [
          163.15238251217488,
          -54.262255021693576
        ]
      }
    },
    {
      "type": "Feature",
      "properties": {
        "norad_id": 55976,
        "name": "TIANMU-1 06",
        "group": "weather",
        "lat": -81.72038171893573,
        "lon": -91.96232039174656,
        "alt_km": 452.1790745468679,
        "timestamp": "2025-12-16T03:53:26.701502+00:00",
        "meta_object_name": "TIANMU-1 06",
        "meta_object_id": "2023-039D",
        "meta_epoch": "2025-12-15T09:35:58.797312",
        "meta_mean_motion": 15.41397735,
        "meta_eccentricity": 0.00046042,
        "meta_inclination": 97.5092,
        "meta_ra_of_asc_node": 152.2753,
        "meta_arg_of_pericenter": 65.7613,
        "meta_mean_anomaly": 294.4114,
        "meta_ephemeris_type": 0,
        "meta_classification_type": "U",
        "meta_norad_cat_id": 55976,
        "meta_element_set_no": 999,
        "meta_rev_at_epoch": 15247,
        "meta_bstar": 0.00027589604,
        "meta_mean_motion_dot": 0.00011446,
        "meta_mean_motion_ddot": 0,
        "tle_line1": "1 55976U 23039D   25349.39998608  .00011446  00000+0  27590-3 0  9995",
        "tle_line2": "2 55976  97.5092 152.2753 0004604  65.7613 294.4114 15.41397735152472"
      },
      "geometry": {
        "type": "Point",
        "coordinates": [
          -91.96232039174656,
          -81.72038171893573
        ]
      }
    },
    {
      "type": "Feature",
      "properties": {
        "norad_id": 56232,
        "name": "FENGYUN 3G",
        "group": "weather",
        "lat": 11.192311181233428,
        "lon": 20.222838421795657,
        "alt_km": 398.13118128797123,
        "timestamp": "2025-12-16T03:53:26.701519+00:00",
        "meta_object_name": "FENGYUN 3G",
        "meta_object_id": "2023-055A",
        "meta_epoch": "2025-12-15T08:39:44.477280",
        "meta_mean_motion": 15.53816859,
        "meta_eccentricity": 0.00093586,
        "meta_inclination": 49.9932,
        "meta_ra_of_asc_node": 213.927,
        "meta_arg_of_pericenter": 160.6844,
        "meta_mean_anomaly": 199.448,
        "meta_ephemeris_type": 0,
        "meta_classification_type": "U",
        "meta_norad_cat_id": 56232,
        "meta_element_set_no": 999,
        "meta_rev_at_epoch": 15143,
        "meta_bstar": 0.00035485342,
        "meta_mean_motion_dot": 0.00022888,
        "meta_mean_motion_ddot": 0,
        "tle_line1": "1 56232U 23055A   25349.36093145  .00022888  00000+0  35485-3 0  9992",
        "tle_line2": "2 56232  49.9932 213.9270 0009358 160.6844 199.4480 15.53816859151434"
      },
      "geometry": {
        "type": "Point",
        "coordinates": [
          20.222838421795657,
          11.192311181233428
        ]
      }
    },
    {
      "type": "Feature",
      "properties": {
        "norad_id": 57166,
        "name": "METEOR-M2 3",
        "group": "weather",
        "lat": 37.27709645326749,
        "lon": -129.71454853680345,
        "alt_km": 811.1988856051503,
        "timestamp": "2025-12-16T03:53:26.701536+00:00",
        "meta_object_name": "METEOR-M2 3",
        "meta_object_id": "2023-091A",
        "meta_epoch": "2025-12-15T08:40:34.142592",
        "meta_mean_motion": 14.24026362,
        "meta_eccentricity": 0.00037572,
        "meta_inclination": 98.6375,
        "meta_ra_of_asc_node": 42.855,
        "meta_arg_of_pericenter": 1.3138,
        "meta_mean_anomaly": 358.805,
        "meta_ephemeris_type": 0,
        "meta_classification_type": "U",
        "meta_norad_cat_id": 57166,
        "meta_element_set_no": 999,
        "meta_rev_at_epoch": 12835,
        "meta_bstar": 2.5881652e-05,
        "meta_mean_motion_dot": 1.6e-07,
        "meta_mean_motion_ddot": 0,
        "tle_line1": "1 57166U 23091A   25349.36150628  .00000016  00000+0  25882-4 0  9999",
        "tle_line2": "2 57166  98.6375  42.8550 0003757   1.3138 358.8050 14.24026362128355"
      },
      "geometry": {
        "type": "Point",
        "coordinates": [
          -129.71454853680345,
          37.27709645326749
        ]
      }
    },
    {
      "type": "Feature",
      "properties": {
        "norad_id": 57399,
        "name": "TIANMU-1 07",
        "group": "weather",
        "lat": 10.539111180623935,
        "lon": -138.69889120715098,
        "alt_km": 483.5217361904488,
        "timestamp": "2025-12-16T03:53:26.701553+00:00",
        "meta_object_name": "TIANMU-1 07",
        "meta_object_id": "2023-101A",
        "meta_epoch": "2025-12-15T08:17:38.626944",
        "meta_mean_motion": 15.28112579,
        "meta_eccentricity": 0.00055099,
        "meta_inclination": 97.288,
        "meta_ra_of_asc_node": 39.1381,
        "meta_arg_of_pericenter": 75.0485,
        "meta_mean_anomaly": 285.1365,
        "meta_ephemeris_type": 0,
        "meta_classification_type": "U",
        "meta_norad_cat_id": 57399,
        "meta_element_set_no": 999,
        "meta_rev_at_epoch": 13355,
        "meta_bstar": 0.00020861477,
        "meta_mean_motion_dot": 5.647e-05,
        "meta_mean_motion_ddot": 0,
        "tle_line1": "1 57399U 23101A   25349.34558596  .00005647  00000+0  20861-3 0  9999",
        "tle_line2": "2 57399  97.2880  39.1381 0005509  75.0485 285.1365 15.28112579133550"
      },
      "geometry": {
        "type": "Point",
        "coordinates": [
          -138.69889120715098,
          10.539111180623935
        ]
      }
    }
  ]
}